[{"OBJECT_NAME":"KINEIS-2A","OBJECT_ID":"2025-028E","EPOCH":"2026-03-09T16:30:13.930272","MEAN_MOTION":14.72099682,"ECCENTRICITY":0.00031402,"INCLINATION":98.0771,"RA_OF_ASC_NODE":124.1949,"ARG_OF_PERICENTER":197.3611,"MEAN_ANOMALY":162.7489,"EPHEMERIS_TYPE":0,"CLASSIFICATION_TYPE":"U","NORAD_CAT_ID":62932,"ELEMENT_SET_NO":999,"REV_AT_EPOCH":5796,"BSTAR":0.00024267113,"MEAN_MOTION_DOT":1.477e-5,"MEAN_MOTION_DDOT":0},{"OBJECT_NAME":"COSMOS 2251 DEB","OBJECT_ID":"1993-036NV","EPOCH":"2026-03-09T17:41:32.285472","MEAN_MOTION":14.77390603,"ECCENTRICITY":0.00550482,"INCLINATION":73.9529,"RA_OF_ASC_NODE":311.9861,"ARG_OF_PERICENTER":334.2727,"MEAN_ANOMALY":81.7397,"EPHEMERIS_TYPE":0,"CLASSIFICATION_TYPE":"U","NORAD_CAT_ID":34323,"ELEMENT_SET_NO":999,"REV_AT_EPOCH":89723,"BSTAR":0.0017412955,"MEAN_MOTION_DOT":0.00012691,"MEAN_MOTION_DDOT":0}]
